COMMENT,ORIGINATOR,NORAD_CAT_ID,OBJECT_NAME,OBJECT_TYPE,CLASSIFICATION_TYPE,INTLDES,EPOCH,EPOCH_MICROSECONDS,MEAN_MOTION,ECCENTRICITY,INCLINATION,RA_OF_ASC_NODE,ARG_OF_PERICENTER,MEAN_ANOMALY,EPHEMERIS_TYPE,ELEMENT_SET_NO,REV_AT_EPOCH,BSTAR,MEAN_MOTION_DOT,MEAN_MOTION_DDOT,FILE,TLE_LINE0,TLE_LINE1,TLE_LINE2,OBJECT_ID,OBJECT_NUMBER,SEMIMAJOR_AXIS,PERIOD,APOGEE,PERIGEE,DECAYED,date
GENERATED VIA SPACETRACK.ORG API,18 SPCS,48896,SPACEBEE-105,PAYLOAD,U,21059T,2023/2/12 3:41,488864,15.22884447,0.0008199,97.5781,177.8472,342.4599,17.6353,0,999,9030,0.0017452,0.00041053,0,3787692,0 SPACEBEE-105,1 48896U 21059T   23043.15404501  .00041053  00000-0  17452-2 0  9998,2 48896  97.5781 177.8472 0008199 342.4599  17.6353 15.22884447 90305,2021-059T,48896,6875.282,94.557,502.784,491.51,0,2023/4/3
GENERATED VIA SPACETRACK.ORG API,18 SPCS,48896,SPACEBEE-105,PAYLOAD,U,21059T,2023/2/13 14:23,6304,15.22998595,0.0008224,97.5776,179.3056,336.9095,23.177,0,999,9052,0.0016197,0.0003821,0,3789366,0 SPACEBEE-105,1 48896U 21059T   23044.59953711  .00038210  00000-0  16197-2 0  9995,2 48896  97.5776 179.3056 0008224 336.9095  23.1770 15.22998595 90521,2021-059T,48896,6874.939,94.55,502.458,491.15,0,2023/4/4
GENERATED VIA SPACETRACK.ORG API,18 SPCS,48896,SPACEBEE-105,PAYLOAD,U,21059T,2023/2/13 14:23,6304,15.22998595,0.0008224,97.5776,179.3056,336.9095,23.177,0,999,9052,0.0016197,0.0003821,0,3789558,0 SPACEBEE-105,1 48896U 21059T   23044.59953711  .00038210  00000-0  16197-2 0  9995,2 48896  97.5776 179.3056 0008224 336.9095  23.1770 15.22998595 90521,2021-059T,48896,6874.939,94.55,502.458,491.15,0,2023/4/5
GENERATED VIA SPACETRACK.ORG API,18 SPCS,48896,SPACEBEE-105,PAYLOAD,U,21059T,2023/2/14 4:34,919008,15.23045419,0.0008237,97.5773,179.9027,334.9723,25.1113,0,999,9061,0.0016954,0.00040064,0,3791349,0 SPACEBEE-105,1 48896U 21059T   23045.19084397  .00040064  00000-0  16954-2 0  9998,2 48896  97.5773 179.9027 0008237 334.9723  25.1113 15.23045419 90614,2021-059T,48896,6874.798,94.547,502.326,491,0,2023/4/6
GENERATED VIA SPACETRACK.ORG API,18 SPCS,48896,SPACEBEE-105,PAYLOAD,U,21059T,2023/2/14 21:55,864992,15.23099807,0.0008259,97.5773,180.6324,332.3472,27.7324,0,999,9072,0.001579,0.00037355,0,3792270,0 SPACEBEE-105,1 48896U 21059T   23045.91352853  .00037355  00000-0  15790-2 0  9999,2 48896  97.5773 180.6324 0008259 332.3472  27.7324 15.23099807 90724,2021-059T,48896,6874.634,94.544,502.177,490.822,0,2023/4/7
GENERATED VIA SPACETRACK.ORG API,18 SPCS,48896,SPACEBEE-105,PAYLOAD,U,21059T,2023/2/15 7:23,63648,15.23132021,0.0008272,97.5773,181.0302,331.0129,29.0647,0,999,9078,0.0017024,0.00040335,0,3793706,0 SPACEBEE-105,1 48896U 21059T   23046.30770907  .00040335  00000-0  17024-2 0  9991,2 48896  97.5773 181.0302 0008272 331.0129  29.0647 15.23132021 90780,2021-059T,48896,6874.537,94.542,502.089,490.716,0,2023/4/8
GENERATED VIA SPACETRACK.ORG API,18 SPCS,48896,SPACEBEE-105,PAYLOAD,U,21059T,2023/2/15 19:59,452832,15.23183371,0.0008239,97.5774,181.5606,329.5056,30.57,0,999,9086,0.0020318,0.00048277,0,3794023,0 SPACEBEE-105,1 48896U 21059T   23046.83326913  .00048277  00000-0  20318-2 0  9996,2 48896  97.5774 181.5606 0008239 329.5056  30.5700 15.23183371 90867,2021-059T,48896,6874.383,94.539,501.912,490.584,0,2023/4/9
GENERATED VIA SPACETRACK.ORG API,18 SPCS,48896,SPACEBEE-105,PAYLOAD,U,21059T,2023/2/15 21:34,385920,15.23189036,0.0008234,97.5774,181.6269,329.2416,30.8337,0,999,9087,0.0020016,0.00047562,0,3795153,0 SPACEBEE-105,1 48896U 21059T   23046.89896280  .00047562  00000-0  20016-2 0  9992,2 48896  97.5774 181.6269 0008234 329.2416  30.8337 15.23189036 90879,2021-059T,48896,6874.366,94.538,501.891,490.57,0,2023/4/10
GENERATED VIA SPACETRACK.ORG API,18 SPCS,48896,SPACEBEE-105,PAYLOAD,U,21059T,2023/2/16 14:55,242432,15.23254771,0.0008131,97.5775,182.3565,326.8774,33.1952,0,999,9098,0.0019173,0.00045632,0,3798293,0 SPACEBEE-105,1 48896U 21059T   23047.62157688  .00045632  00000-0  19173-2 0  9994,2 48896  97.5775 182.3565 0008131 326.8774  33.1952 15.23254771 90983,2021-059T,48896,6874.168,94.534,501.622,490.444,0,2023/4/11
GENERATED VIA SPACETRACK.ORG API,18 SPCS,48896,SPACEBEE-105,PAYLOAD,U,21059T,2023/2/16 22:48,345760,15.2328327,0.0008185,97.5776,182.6881,325.3725,34.6977,0,999,9103,0.0017926,0.00042679,0,3799866,0 SPACEBEE-105,1 48896U 21059T   23047.95002715  .00042679  00000-0  17926-2 0  9992,2 48896  97.5776 182.6881 0008185 325.3725  34.6977 15.23283270 91033,2021-059T,48896,6874.082,94.533,501.574,490.321,0,2023/4/12
GENERATED VIA SPACETRACK.ORG API,18 SPCS,48896,SPACEBEE-105,PAYLOAD,U,21059T,2023/2/17 8:15,501760,15.23308735,0.0008205,97.5775,183.0861,323.7972,36.2708,0,999,9109,0.0014387,0.00034226,0,3802730,0 SPACEBEE-105,1 48896U 21059T   23048.34416090  .00034226  00000-0  14387-2 0  9998,2 48896  97.5775 183.0861 0008205 323.7972  36.2708 15.23308735 91094,2021-059T,48896,6874.006,94.531,501.511,490.231,0,2023/4/13
GENERATED VIA SPACETRACK.ORG API,18 SPCS,48896,SPACEBEE-105,PAYLOAD,U,21059T,2023/2/17 8:15,501760,15.23308735,0.0008205,97.5775,183.0861,323.7972,36.2708,0,999,9109,0.0014387,0.00034226,0,3803024,0 SPACEBEE-105,1 48896U 21059T   23048.34416090  .00034226  00000-0  14387-2 0  9998,2 48896  97.5775 183.0861 0008205 323.7972  36.2708 15.23308735 91094,2021-059T,48896,6874.006,94.531,501.511,490.231,0,2023/4/14
GENERATED VIA SPACETRACK.ORG API,18 SPCS,48896,SPACEBEE-105,PAYLOAD,U,21059T,2023/2/17 20:52,778656,15.23342481,0.0008199,97.5775,183.6166,321.8263,38.2392,0,999,9117,0.0012267,0.00029181,0,3804075,0 SPACEBEE-105,1 48896U 21059T   23048.86966179  .00029181  00000-0  12267-2 0  9992,2 48896  97.5775 183.6166 0008199 321.8263  38.2392 15.23342481 91178,2021-059T,48896,6873.904,94.529,501.405,490.133,0,2023/4/15
GENERATED VIA SPACETRACK.ORG API,18 SPCS,48896,SPACEBEE-105,PAYLOAD,U,21059T,2023/2/18 7:54,927200,15.23367956,0.0008214,97.5776,184.0809,320.0029,40.0602,0,999,9124,0.0011657,0.00027742,0,3807124,0 SPACEBEE-105,1 48896U 21059T   23049.32946675  .00027742  00000-0  11657-2 0  9996,2 48896  97.5776 184.0809 0008214 320.0029  40.0602 15.23367956 91244,2021-059T,48896,6873.828,94.527,501.339,490.046,0,2023/4/16
GENERATED VIA SPACETRACK.ORG API,18 SPCS,48896,SPACEBEE-105,PAYLOAD,U,21059T,2023/2/18 7:54,927200,15.23367956,0.0008214,97.5776,184.0809,320.0029,40.0602,0,999,9124,0.0011657,0.00027742,0,3807490,0 SPACEBEE-105,1 48896U 21059T   23049.32946675  .00027742  00000-0  11657-2 0  9996,2 48896  97.5776 184.0809 0008214 320.0029  40.0602 15.23367956 91244,2021-059T,48896,6873.828,94.527,501.339,490.046,0,2023/4/17
GENERATED VIA SPACETRACK.ORG API,18 SPCS,48896,SPACEBEE-105,PAYLOAD,U,21059T,2023/2/19 7:33,165344,15.23425985,0.0008197,97.5777,185.0756,316.4061,43.6527,0,999,9139,0.0012175,0.00029032,0,3811610,0 SPACEBEE-105,1 48896U 21059T   23050.31473571  .00029032  00000-0  12175-2 0  9997,2 48896  97.5777 185.0756 0008197 316.4061  43.6527 15.23425985 91390,2021-059T,48896,6873.653,94.524,501.152,489.884,0,2023/4/18
GENERATED VIA SPACETRACK.ORG API,18 SPCS,48896,SPACEBEE-105,PAYLOAD,U,21059T,2023/2/19 20:09,156448,15.23453885,0.0008193,97.5784,185.6064,314.9172,45.1398,0,999,9147,0.0011474,0.00027373,0,3812017,0 SPACEBEE-105,1 48896U 21059T   23050.84019857  .00027373  00000-0  11474-2 0  9995,2 48896  97.5784 185.6064 0008193 314.9172  45.1398 15.23453885 91470,2021-059T,48896,6873.569,94.522,501.066,489.803,0,2023/4/19
GENERATED VIA SPACETRACK.ORG API,18 SPCS,48896,SPACEBEE-105,PAYLOAD,U,21059T,2023/2/20 8:46,199744,15.23483168,0.0008154,97.5788,186.1376,313.2853,46.7703,0,999,9155,0.0011218,0.00026782,0,3815761,0 SPACEBEE-105,1 48896U 21059T   23051.36565046  .00026782  00000-0  11218-2 0  9998,2 48896  97.5788 186.1376 0008154 313.2853  46.7703 15.23483168 91554,2021-059T,48896,6873.481,94.52,500.951,489.741,0,2023/4/20
GENERATED VIA SPACETRACK.ORG API,18 SPCS,48896,SPACEBEE-105,PAYLOAD,U,21059T,2023/2/20 21:23,422240,15.23512188,0.0008108,97.5791,186.668,311.2537,48.8001,0,999,9163,0.001108,0.00026473,0,3817792,0 SPACEBEE-105,1 48896U 21059T   23051.89109285  .00026473  00000-0  11080-2 0  9999,2 48896  97.5791 186.6680 0008108 311.2537  48.8001 15.23512188 91635,2021-059T,48896,6873.394,94.518,500.832,489.686,0,2023/4/21
GENERATED VIA SPACETRACK.ORG API,18 SPCS,48896,SPACEBEE-105,PAYLOAD,U,21059T,2023/2/21 14:43,384416,15.2355875,0.0008167,97.5791,187.3979,308.4836,51.5668,0,999,9174,0.0013057,0.00031273,0,3819803,0 SPACEBEE-105,1 48896U 21059T   23052.61355769  .00031273  00000-0  13057-2 0  9990,2 48896  97.5791 187.3979 0008167 308.4836  51.5668 15.23558750 91746,2021-059T,48896,6873.254,94.516,500.732,489.505,0,2023/4/22
GENERATED VIA SPACETRACK.ORG API,18 SPCS,48896,SPACEBEE-105,PAYLOAD,U,21059T,2023/2/21 21:01,445472,15.23577067,0.0008136,97.579,187.6632,307.4354,52.6142,0,999,9178,0.0013268,0.00031799,0,3821329,0 SPACEBEE-105,1 48896U 21059T   23052.87626673  .00031799  00000-0  13268-2 0  9990,2 48896  97.5790 187.6632 0008136 307.4354  52.6142 15.23577067 91789,2021-059T,48896,6873.199,94.514,500.656,489.472,0,2023/4/23
GENERATED VIA SPACETRACK.ORG API,18 SPCS,48896,SPACEBEE-105,PAYLOAD,U,21059T,2023/2/21 22:36,925312,15.23581021,0.0008132,97.579,187.7296,307.2387,52.8107,0,999,9179,0.0013334,0.00031962,0,3821538,0 SPACEBEE-105,1 48896U 21059T   23052.94194358  .00031962  00000-0  13334-2 0  9994,2 48896  97.5790 187.7296 0008132 307.2387  52.8107 15.23581021 91795,2021-059T,48896,6873.187,94.514,500.641,489.462,0,2023/4/24
GENERATED VIA SPACETRACK.ORG API,18 SPCS,48896,SPACEBEE-105,PAYLOAD,U,21059T,2023/2/22 14:22,915872,15.23616752,0.000816,97.579,188.3928,304.8812,55.1656,0,999,9189,0.0011225,0.00026905,0,3824148,0 SPACEBEE-105,1 48896U 21059T   23053.59870273  .00026905  00000-0  11225-2 0  9991,2 48896  97.5790 188.3928 0008160 304.8812  55.1656 15.23616752 91897,2021-059T,48896,6873.079,94.512,500.553,489.336,0,2023/4/25
